[{"OBJECT_NAME":"UNKNOWN","OBJECT_ID":"","EPOCH":"2026-03-03T01:58:39.117216","MEAN_MOTION":3.21168658,"ECCENTRICITY":0.6536691,"INCLINATION":20.3241,"RA_OF_ASC_NODE":227.6525,"ARG_OF_PERICENTER":148.3914,"MEAN_ANOMALY":277.0053,"EPHEMERIS_TYPE":0,"CLASSIFICATION_TYPE":"U","NORAD_CAT_ID":84232,"ELEMENT_SET_NO":999,"REV_AT_EPOCH":10725,"BSTAR":0.031272,"MEAN_MOTION_DOT":0.00042659,"MEAN_MOTION_DDOT":0},{"OBJECT_NAME":"UNKNOWN","OBJECT_ID":"","EPOCH":"2026-03-02T02:12:07.356384","MEAN_MOTION":2.62653933,"ECCENTRICITY":0.6890498,"INCLINATION":9.3107,"RA_OF_ASC_NODE":299.792,"ARG_OF_PERICENTER":164.3464,"MEAN_ANOMALY":238.4347,"EPHEMERIS_TYPE":0,"CLASSIFICATION_TYPE":"U","NORAD_CAT_ID":84236,"ELEMENT_SET_NO":999,"REV_AT_EPOCH":11606,"BSTAR":0.0059819,"MEAN_MOTION_DOT":9.4e-6,"MEAN_MOTION_DDOT":0},{"OBJECT_NAME":"UNKNOWN","OBJECT_ID":"","EPOCH":"2026-03-03T01:01:21.320832","MEAN_MOTION":6.22212735,"ECCENTRICITY":0.4554391,"INCLINATION":23.8342,"RA_OF_ASC_NODE":49.064,"ARG_OF_PERICENTER":73.5287,"MEAN_ANOMALY":330.6736,"EPHEMERIS_TYPE":0,"CLASSIFICATION_TYPE":"U","NORAD_CAT_ID":84292,"ELEMENT_SET_NO":999,"REV_AT_EPOCH":23306,"BSTAR":0.0028199,"MEAN_MOTION_DOT":4.633e-5,"MEAN_MOTION_DDOT":0},{"OBJECT_NAME":"UNKNOWN","OBJECT_ID":"","EPOCH":"2026-02-27T05:14:06.033696","MEAN_MOTION":2.05796928,"ECCENTRICITY":0.7208492,"INCLINATION":19.4512,"RA_OF_ASC_NODE":300.0109,"ARG_OF_PERICENTER":102.8288,"MEAN_ANOMALY":339.5385,"EPHEMERIS_TYPE":0,"CLASSIFICATION_TYPE":"U","NORAD_CAT_ID":84407,"ELEMENT_SET_NO":999,"REV_AT_EPOCH":7744,"BSTAR":0.015745,"MEAN_MOTION_DOT":-6.2e-7,"MEAN_MOTION_DDOT":0},{"OBJECT_NAME":"UNKNOWN","OBJECT_ID":"","EPOCH":"2026-03-03T08:05:14.544096","MEAN_MOTION":2.19867114,"ECCENTRICITY":0.7115404,"INCLINATION":18.0132,"RA_OF_ASC_NODE":131.5702,"ARG_OF_PERICENTER":71.7416,"MEAN_ANOMALY":349.0642,"EPHEMERIS_TYPE":0,"CLASSIFICATION_TYPE":"U","NORAD_CAT_ID":84575,"ELEMENT_SET_NO":999,"REV_AT_EPOCH":6723,"BSTAR":0.0051095,"MEAN_MOTION_DOT":-7.2e-7,"MEAN_MOTION_DDOT":0},{"OBJECT_NAME":"UNKNOWN","OBJECT_ID":"","EPOCH":"2026-03-03T11:21:56.862720","MEAN_MOTION":3.00128761,"ECCENTRICITY":0.6576838,"INCLINATION":2.0473,"RA_OF_ASC_NODE":195.286,"ARG_OF_PERICENTER":147.8661,"MEAN_ANOMALY":47.5732,"EPHEMERIS_TYPE":0,"CLASSIFICATION_TYPE":"U","NORAD_CAT_ID":84932,"ELEMENT_SET_NO":999,"REV_AT_EPOCH":13420,"BSTAR":0.0083022,"MEAN_MOTION_DOT":1.014e-5,"MEAN_MOTION_DDOT":0},{"OBJECT_NAME":"UNKNOWN","OBJECT_ID":"","EPOCH":"2026-03-02T10:06:23.120352","MEAN_MOTION":14.41332468,"ECCENTRICITY":0.0045628,"INCLINATION":98.4328,"RA_OF_ASC_NODE":36.3343,"ARG_OF_PERICENTER":283.5862,"MEAN_ANOMALY":228.534,"EPHEMERIS_TYPE":0,"CLASSIFICATION_TYPE":"U","NORAD_CAT_ID":85004,"ELEMENT_SET_NO":999,"REV_AT_EPOCH":64237,"BSTAR":0.00046123,"MEAN_MOTION_DOT":1.467e-5,"MEAN_MOTION_DDOT":0},{"OBJECT_NAME":"UNKNOWN","OBJECT_ID":"","EPOCH":"2026-02-27T02:23:30.679296","MEAN_MOTION":13.75239596,"ECCENTRICITY":0.0026672,"INCLINATION":99.2482,"RA_OF_ASC_NODE":282.6795,"ARG_OF_PERICENTER":51.5718,"MEAN_ANOMALY":101.6401,"EPHEMERIS_TYPE":0,"CLASSIFICATION_TYPE":"U","NORAD_CAT_ID":85010,"ELEMENT_SET_NO":999,"REV_AT_EPOCH":61441,"BSTAR":0.0010809,"MEAN_MOTION_DOT":9.96e-6,"MEAN_MOTION_DDOT":0},{"OBJECT_NAME":"UNKNOWN","OBJECT_ID":"","EPOCH":"2026-02-16T07:27:32.367456","MEAN_MOTION":14.62388436,"ECCENTRICITY":0.0014854,"INCLINATION":74.0482,"RA_OF_ASC_NODE":272.7196,"ARG_OF_PERICENTER":167.0916,"MEAN_ANOMALY":193.0634,"EPHEMERIS_TYPE":0,"CLASSIFICATION_TYPE":"U","NORAD_CAT_ID":85015,"ELEMENT_SET_NO":999,"REV_AT_EPOCH":65219,"BSTAR":0.00010515,"MEAN_MOTION_DOT":5.02e-6,"MEAN_MOTION_DDOT":0},{"OBJECT_NAME":"UNKNOWN","OBJECT_ID":"","EPOCH":"2026-03-02T08:15:36.155808","MEAN_MOTION":14.79668742,"ECCENTRICITY":0.0002815,"INCLINATION":99.8411,"RA_OF_ASC_NODE":99.2333,"ARG_OF_PERICENTER":116.6702,"MEAN_ANOMALY":309.4584,"EPHEMERIS_TYPE":0,"CLASSIFICATION_TYPE":"U","NORAD_CAT_ID":85023,"ELEMENT_SET_NO":999,"REV_AT_EPOCH":64058,"BSTAR":0.0042789,"MEAN_MOTION_DOT":0.00032198,"MEAN_MOTION_DDOT":0},{"OBJECT_NAME":"UNKNOWN","OBJECT_ID":"","EPOCH":"2026-02-28T22:59:12.145344","MEAN_MOTION":13.74280175,"ECCENTRICITY":0.0170792,"INCLINATION":66.0397,"RA_OF_ASC_NODE":269.9669,"ARG_OF_PERICENTER":148.6247,"MEAN_ANOMALY":212.5145,"EPHEMERIS_TYPE":0,"CLASSIFICATION_TYPE":"U","NORAD_CAT_ID":85027,"ELEMENT_SET_NO":999,"REV_AT_EPOCH":61536,"BSTAR":0.00022919,"MEAN_MOTION_DOT":1.62e-6,"MEAN_MOTION_DDOT":0},{"OBJECT_NAME":"UNKNOWN","OBJECT_ID":"","EPOCH":"2026-03-02T10:15:31.926240","MEAN_MOTION":13.464941,"ECCENTRICITY":0.0107618,"INCLINATION":102.1691,"RA_OF_ASC_NODE":48.5786,"ARG_OF_PERICENTER":204.1725,"MEAN_ANOMALY":155.4326,"EPHEMERIS_TYPE":0,"CLASSIFICATION_TYPE":"U","NORAD_CAT_ID":85047,"ELEMENT_SET_NO":999,"REV_AT_EPOCH":58737,"BSTAR":0.019019,"MEAN_MOTION_DOT":0.00011818,"MEAN_MOTION_DDOT":0},{"OBJECT_NAME":"UNKNOWN","OBJECT_ID":"","EPOCH":"2026-03-02T22:22:14.329056","MEAN_MOTION":12.77629438,"ECCENTRICITY":0.0272116,"INCLINATION":102.3983,"RA_OF_ASC_NODE":58.0882,"ARG_OF_PERICENTER":33.2591,"MEAN_ANOMALY":356.5324,"EPHEMERIS_TYPE":0,"CLASSIFICATION_TYPE":"U","NORAD_CAT_ID":85061,"ELEMENT_SET_NO":999,"REV_AT_EPOCH":56602,"BSTAR":0.016147,"MEAN_MOTION_DOT":4.1e-5,"MEAN_MOTION_DDOT":0},{"OBJECT_NAME":"UNKNOWN","OBJECT_ID":"","EPOCH":"2026-03-01T18:01:49.155168","MEAN_MOTION":14.40787816,"ECCENTRICITY":0.0013889,"INCLINATION":74.0436,"RA_OF_ASC_NODE":76.7061,"ARG_OF_PERICENTER":283.8146,"MEAN_ANOMALY":191.9805,"EPHEMERIS_TYPE":0,"CLASSIFICATION_TYPE":"U","NORAD_CAT_ID":85100,"ELEMENT_SET_NO":999,"REV_AT_EPOCH":64472,"BSTAR":0.0001371,"MEAN_MOTION_DOT":4.13e-6,"MEAN_MOTION_DDOT":0},{"OBJECT_NAME":"UNKNOWN","OBJECT_ID":"","EPOCH":"2026-03-02T06:33:11.361888","MEAN_MOTION":13.73020868,"ECCENTRICITY":0.0010626,"INCLINATION":100.0513,"RA_OF_ASC_NODE":171.0432,"ARG_OF_PERICENTER":168.367,"MEAN_ANOMALY":220.922,"EPHEMERIS_TYPE":0,"CLASSIFICATION_TYPE":"U","NORAD_CAT_ID":85106,"ELEMENT_SET_NO":999,"REV_AT_EPOCH":61398,"BSTAR":0.00086413,"MEAN_MOTION_DOT":7.5e-6,"MEAN_MOTION_DDOT":0},{"OBJECT_NAME":"UNKNOWN","OBJECT_ID":"","EPOCH":"2026-03-02T10:42:43.038144","MEAN_MOTION":14.82720248,"ECCENTRICITY":0.000687,"INCLINATION":98.4016,"RA_OF_ASC_NODE":294.2343,"ARG_OF_PERICENTER":255.8387,"MEAN_ANOMALY":104.2062,"EPHEMERIS_TYPE":0,"CLASSIFICATION_TYPE":"U","NORAD_CAT_ID":85151,"ELEMENT_SET_NO":999,"REV_AT_EPOCH":49132,"BSTAR":0.0032661,"MEAN_MOTION_DOT":0.00026411,"MEAN_MOTION_DDOT":0},{"OBJECT_NAME":"UNKNOWN","OBJECT_ID":"","EPOCH":"2026-03-01T21:08:29.149152","MEAN_MOTION":13.71664727,"ECCENTRICITY":0.0217187,"INCLINATION":99.8611,"RA_OF_ASC_NODE":209.0501,"ARG_OF_PERICENTER":112.2323,"MEAN_ANOMALY":39.3903,"EPHEMERIS_TYPE":0,"CLASSIFICATION_TYPE":"U","NORAD_CAT_ID":85210,"ELEMENT_SET_NO":999,"REV_AT_EPOCH":61300,"BSTAR":0.00029587,"MEAN_MOTION_DOT":2.7e-6,"MEAN_MOTION_DDOT":0},{"OBJECT_NAME":"UNKNOWN","OBJECT_ID":"","EPOCH":"2026-03-02T16:56:40.056288","MEAN_MOTION":14.37597452,"ECCENTRICITY":0.0206177,"INCLINATION":98.0236,"RA_OF_ASC_NODE":155.8785,"ARG_OF_PERICENTER":246.3546,"MEAN_ANOMALY":111.588,"EPHEMERIS_TYPE":0,"CLASSIFICATION_TYPE":"U","NORAD_CAT_ID":85217,"ELEMENT_SET_NO":999,"REV_AT_EPOCH":63934,"BSTAR":0.00084029,"MEAN_MOTION_DOT":3.176e-5,"MEAN_MOTION_DDOT":0},{"OBJECT_NAME":"UNKNOWN","OBJECT_ID":"","EPOCH":"2026-02-23T08:31:05.057760","MEAN_MOTION":14.01835433,"ECCENTRICITY":0.0516167,"INCLINATION":65.5338,"RA_OF_ASC_NODE":24.2147,"ARG_OF_PERICENTER":354.4749,"MEAN_ANOMALY":5.0755,"EPHEMERIS_TYPE":0,"CLASSIFICATION_TYPE":"U","NORAD_CAT_ID":85237,"ELEMENT_SET_NO":999,"REV_AT_EPOCH":61852,"BSTAR":0.0026977,"MEAN_MOTION_DOT":0.00013478,"MEAN_MOTION_DDOT":0},{"OBJECT_NAME":"UNKNOWN","OBJECT_ID":"","EPOCH":"2026-03-01T14:43:58.054368","MEAN_MOTION":13.88359031,"ECCENTRICITY":0.0063249,"INCLINATION":99.0679,"RA_OF_ASC_NODE":352.5634,"ARG_OF_PERICENTER":348.3431,"MEAN_ANOMALY":134.9925,"EPHEMERIS_TYPE":0,"CLASSIFICATION_TYPE":"U","NORAD_CAT_ID":85238,"ELEMENT_SET_NO":999,"REV_AT_EPOCH":62178,"BSTAR":7.8012e-5,"MEAN_MOTION_DOT":5.2e-7,"MEAN_MOTION_DDOT":0},{"OBJECT_NAME":"UNKNOWN","OBJECT_ID":"","EPOCH":"2026-03-02T22:18:05.656032","MEAN_MOTION":14.21754257,"ECCENTRICITY":0.0223909,"INCLINATION":97.9904,"RA_OF_ASC_NODE":62.9194,"ARG_OF_PERICENTER":67.5456,"MEAN_ANOMALY":294.927,"EPHEMERIS_TYPE":0,"CLASSIFICATION_TYPE":"U","NORAD_CAT_ID":85246,"ELEMENT_SET_NO":999,"REV_AT_EPOCH":63446,"BSTAR":0.00073208,"MEAN_MOTION_DOT":2.039e-5,"MEAN_MOTION_DDOT":0},{"OBJECT_NAME":"UNKNOWN","OBJECT_ID":"","EPOCH":"2026-03-02T08:53:15.254880","MEAN_MOTION":14.00392417,"ECCENTRICITY":0.0050388,"INCLINATION":100.4244,"RA_OF_ASC_NODE":113.4894,"ARG_OF_PERICENTER":30.0759,"MEAN_ANOMALY":32.4939,"EPHEMERIS_TYPE":0,"CLASSIFICATION_TYPE":"U","NORAD_CAT_ID":85373,"ELEMENT_SET_NO":999,"REV_AT_EPOCH":62327,"BSTAR":0.0016748,"MEAN_MOTION_DOT":2.454e-5,"MEAN_MOTION_DDOT":0},{"OBJECT_NAME":"UNKNOWN","OBJECT_ID":"","EPOCH":"2026-02-02T17:05:00.983616","MEAN_MOTION":3.07857636,"ECCENTRICITY":0.6775828,"INCLINATION":51.2937,"RA_OF_ASC_NODE":156.4139,"ARG_OF_PERICENTER":239.1756,"MEAN_ANOMALY":342.8295,"EPHEMERIS_TYPE":0,"CLASSIFICATION_TYPE":"U","NORAD_CAT_ID":85425,"ELEMENT_SET_NO":999,"REV_AT_EPOCH":0,"BSTAR":0,"MEAN_MOTION_DOT":0,"MEAN_MOTION_DDOT":0},{"OBJECT_NAME":"UNKNOWN","OBJECT_ID":"","EPOCH":"2026-03-02T10:04:37.973280","MEAN_MOTION":13.52299095,"ECCENTRICITY":0.0053173,"INCLINATION":100.4827,"RA_OF_ASC_NODE":35.1278,"ARG_OF_PERICENTER":43.2118,"MEAN_ANOMALY":110.1612,"EPHEMERIS_TYPE":0,"CLASSIFICATION_TYPE":"U","NORAD_CAT_ID":87014,"ELEMENT_SET_NO":999,"REV_AT_EPOCH":60168,"BSTAR":0.0044439,"MEAN_MOTION_DOT":2.909e-5,"MEAN_MOTION_DDOT":0}]
